start=new Date('2022-10-21T00:00:00.000Z').valueOf();
sats=[{"TIME_SYSTEM":"UTC","LAUNCH_DATE":"2020-01-07","PERIOD":"95.595","MEAN_ELEMENT_THEORY":"SGP4","DECAY_DATE":null,"OBJECT_NAME":"STARLINK-1108","EPHEMERIS_TYPE":"0","BSTAR":"0.00058920000000","COUNTRY_CODE":"US","CLASSIFICATION_TYPE":"U","RA_OF_ASC_NODE":"114.8785","REF_FRAME":"TEME","RCS_SIZE":"LARGE","ARG_OF_PERICENTER":"127.8431","EPOCH":"2022-10-20T18:29:59.563392","SEMIMAJOR_AXIS":"6925.475","ECCENTRICITY":"0.00012260","REV_AT_EPOCH":"15384","OBJECT_ID":"2020-001AG","TLE_LINE2":"2 44944  53.0544 114.8785 0001226 127.8431 232.2669 15.06358751153841","NORAD_CAT_ID":"44944","MEAN_ANOMALY":"232.2669","APOAPSIS":"548.189","PERIAPSIS":"546.491","TLE_LINE1":"1 44944U 20001AG  22293.77082828  .00008496  00000-0  58920-3 0  9992","OBJECT_TYPE":"PAYLOAD","FILE":"3626396","SITE":"AFETR","CENTER_NAME":"EARTH","GP_ID":"215722788","MEAN_MOTION_DDOT":"0.0000000000000","INCLINATION":"53.0544","MEAN_MOTION_DOT":"0.00008496","ELEMENT_SET_NO":"999","MEAN_MOTION":"15.06358751"},{"PERIAPSIS":"546.223","APOAPSIS":"548.218","OBJECT_TYPE":"PAYLOAD","TLE_LINE1":"1 44945U 20001AH  22293.80029038  .00001299  00000-0  10611-3 0  9990","SITE":"AFETR","FILE":"3626396","GP_ID":"215721556","CENTER_NAME":"EARTH","MEAN_MOTION_DDOT":"0.0000000000000","INCLINATION":"53.0548","MEAN_MOTION_DOT":"0.00001299","ELEMENT_SET_NO":"999","MEAN_MOTION":"15.06397733","LAUNCH_DATE":"2020-01-07","TIME_SYSTEM":"UTC","DECAY_DATE":null,"OBJECT_NAME":"STARLINK-1109","MEAN_ELEMENT_THEORY":"SGP4","PERIOD":"95.592","EPHEMERIS_TYPE":"0","BSTAR":"0.00010611000000","COUNTRY_CODE":"US","RA_OF_ASC_NODE":"114.7418","CLASSIFICATION_TYPE":"U","RCS_SIZE":"LARGE","REF_FRAME":"TEME","EPOCH":"2022-10-20T19:12:25.088832","ARG_OF_PERICENTER":"105.7641","SEMIMAJOR_AXIS":"6925.356","REV_AT_EPOCH":"15384","ECCENTRICITY":"0.00014410","OBJECT_ID":"2020-001AH","MEAN_ANOMALY":"254.3507","TLE_LINE2":"2 44945  53.0548 114.7418 0001441 105.7641 254.3507 15.06397733153844","NORAD_CAT_ID":"44945"},{"MEAN_MOTION":"15.18522281","ELEMENT_SET_NO":"999","MEAN_MOTION_DOT":"0.00015244","INCLINATION":"53.0059","MEAN_MOTION_DDOT":"0.0000000000000","GP_ID":"215722305","CENTER_NAME":"EARTH","FILE":"3626396","SITE":"AFETR","TLE_LINE1":"1 44946U 20001AJ  22293.86073677  .00015244  00000-0  74316-3 0  9992","OBJECT_TYPE":"PAYLOAD","APOAPSIS":"510.660","PERIAPSIS":"509.956","TLE_LINE2":"2 44946  53.0059  93.3326 0000511 241.2884 118.8058 15.18522281154111","NORAD_CAT_ID":"44946","MEAN_ANOMALY":"118.8058","OBJECT_ID":"2020-001AJ","ECCENTRICITY":"0.00005110","REV_AT_EPOCH":"15411","SEMIMAJOR_AXIS":"6888.443","EPOCH":"2022-10-20T20:39:27.656928","ARG_OF_PERICENTER":"241.2884","RCS_SIZE":"LARGE","REF_FRAME":"TEME","RA_OF_ASC_NODE":"93.3326","CLASSIFICATION_TYPE":"U","COUNTRY_CODE":"US","EPHEMERIS_TYPE":"0","BSTAR":"0.00074316000000","MEAN_ELEMENT_THEORY":"SGP4","PERIOD":"94.829","OBJECT_NAME":"STARLINK-1110","DECAY_DATE":null,"TIME_SYSTEM":"UTC","LAUNCH_DATE":"2020-01-07"},{"CENTER_NAME":"EARTH","GP_ID":"215686827","SITE":"AFETR","FILE":"3625892","TLE_LINE1":"1 44947U 20001AK  22292.95989880  .00000002  00000-0  19026-4 0  9998","OBJECT_TYPE":"PAYLOAD","APOAPSIS":"548.122","PERIAPSIS":"546.373","MEAN_MOTION":"15.06389002","ELEMENT_SET_NO":"999","MEAN_MOTION_DOT":"0.00000002","MEAN_MOTION_DDOT":"0.0000000000000","INCLINATION":"53.0550","COUNTRY_CODE":"US","EPHEMERIS_TYPE":"0","BSTAR":"0.00001902600000","DECAY_DATE":null,"OBJECT_NAME":"STARLINK-1116","MEAN_ELEMENT_THEORY":"SGP4","PERIOD":"95.593","LAUNCH_DATE":"2020-01-07","TIME_SYSTEM":"UTC","MEAN_ANOMALY":"272.9093","NORAD_CAT_ID":"44947","TLE_LINE2":"2 44947  53.0550 118.5125 0001263  87.2040 272.9093 15.06389002153728","OBJECT_ID":"2020-001AK","REV_AT_EPOCH":"15372","ECCENTRICITY":"0.00012630","SEMIMAJOR_AXIS":"6925.382","ARG_OF_PERICENTER":"87.2040","EPOCH":"2022-10-19T23:02:15.256320","REF_FRAME":"TEME","RCS_SIZE":"LARGE","CLASSIFICATION_TYPE":"U","RA_OF_ASC_NODE":"118.5125"},{"APOAPSIS":"548.148","PERIAPSIS":"546.275","SITE":"AFETR","FILE":"3626396","TLE_LINE1":"1 44949U 20001AM  22293.78186058  .00001771  00000-0  13773-3 0  9994","OBJECT_TYPE":"PAYLOAD","GP_ID":"215723288","CENTER_NAME":"EARTH","MEAN_MOTION_DDOT":"0.0000000000000","INCLINATION":"53.0531","MEAN_MOTION_DOT":"0.00001771","ELEMENT_SET_NO":"999","MEAN_MOTION":"15.06400600","LAUNCH_DATE":"2020-01-07","TIME_SYSTEM":"UTC","BSTAR":"0.00013773000000","EPHEMERIS_TYPE":"0","OBJECT_NAME":"STARLINK-1122","DECAY_DATE":null,"PERIOD":"95.592","MEAN_ELEMENT_THEORY":"SGP4","COUNTRY_CODE":"US","REF_FRAME":"TEME","RCS_SIZE":"LARGE","RA_OF_ASC_NODE":"114.8238","CLASSIFICATION_TYPE":"U","SEMIMAJOR_AXIS":"6925.347","EPOCH":"2022-10-20T18:45:52.754112","ARG_OF_PERICENTER":"96.8553","OBJECT_ID":"2020-001AM","REV_AT_EPOCH":"15384","ECCENTRICITY":"0.00013520","MEAN_ANOMALY":"263.2590","TLE_LINE2":"2 44949  53.0531 114.8238 0001352  96.8553 263.2590 15.06400600153843","NORAD_CAT_ID":"44949"},{"COUNTRY_CODE":"US","BSTAR":"0.00144010000000","EPHEMERIS_TYPE":"0","MEAN_ELEMENT_THEORY":"SGP4","PERIOD":"95.108","OBJECT_NAME":"STARLINK-1125","DECAY_DATE":null,"TIME_SYSTEM":"UTC","LAUNCH_DATE":"2020-01-07","NORAD_CAT_ID":"44950","TLE_LINE2":"2 44950  53.0499 109.0676 0000840 199.0520 161.0441 15.14070139153929","MEAN_ANOMALY":"161.0441","OBJECT_ID":"2020-001AN","ECCENTRICITY":"0.00008400","REV_AT_EPOCH":"15392","SEMIMAJOR_AXIS":"6901.940","ARG_OF_PERICENTER":"199.0520","EPOCH":"2022-10-20T18:49:49.033920","REF_FRAME":"TEME","RCS_SIZE":"LARGE","CLASSIFICATION_TYPE":"U","RA_OF_ASC_NODE":"109.0676","CENTER_NAME":"EARTH","GP_ID":"215722056","FILE":"3626396","SITE":"AFETR","TLE_LINE1":"1 44950U 20001AN  22293.78459530  .00026297  00000-0  14401-2 0  9992","OBJECT_TYPE":"PAYLOAD","PERIAPSIS":"523.225","APOAPSIS":"524.385","MEAN_MOTION":"15.14070139","ELEMENT_SET_NO":"999","MEAN_MOTION_DOT":"0.00026297","INCLINATION":"53.0499","MEAN_MOTION_DDOT":"0.0000000000000"},{"COUNTRY_CODE":"US","OBJECT_NAME":"STARLINK-1126","DECAY_DATE":null,"PERIOD":"94.845","MEAN_ELEMENT_THEORY":"SGP4","BSTAR":"0.00072285000000","EPHEMERIS_TYPE":"0","LAUNCH_DATE":"2020-01-07","TIME_SYSTEM":"UTC","MEAN_ANOMALY":"132.7964","NORAD_CAT_ID":"44951","TLE_LINE2":"2 44951  53.0029  94.4869 0000916 227.2952 132.7964 15.18264698155383","REV_AT_EPOCH":"15538","ECCENTRICITY":"0.00009160","OBJECT_ID":"2020-001AP","ARG_OF_PERICENTER":"227.2952","EPOCH":"2022-10-20T20:22:41.153952","SEMIMAJOR_AXIS":"6889.222","RA_OF_ASC_NODE":"94.4869","CLASSIFICATION_TYPE":"U","REF_FRAME":"TEME","RCS_SIZE":"LARGE","CENTER_NAME":"EARTH","GP_ID":"215721807","TLE_LINE1":"1 44951U 20001AP  22293.84908743  .00014706  00000-0  72285-3 0  9992","OBJECT_TYPE":"PAYLOAD","SITE":"AFETR","FILE":"3626396","APOAPSIS":"511.718","PERIAPSIS":"510.456","MEAN_MOTION":"15.18264698","ELEMENT_SET_NO":"999","MEAN_MOTION_DOT":"0.00014706","MEAN_MOTION_DDOT":"0.0000000000000","INCLINATION":"53.0029"},{"MEAN_MOTION_DDOT":"0.0000000000000","INCLINATION":"53.0541","MEAN_MOTION_DOT":"0.00002037","ELEMENT_SET_NO":"999","MEAN_MOTION":"15.06402110","PERIAPSIS":"546.205","APOAPSIS":"548.209","TLE_LINE1":"1 44952U 20001AQ  22293.76342771  .00002037  00000-0  15559-3 0  9992","OBJECT_TYPE":"PAYLOAD","SITE":"AFETR","FILE":"3626396","GP_ID":"215723055","CENTER_NAME":"EARTH","CLASSIFICATION_TYPE":"U","RA_OF_ASC_NODE":"114.9169","REF_FRAME":"TEME","RCS_SIZE":"LARGE","ARG_OF_PERICENTER":"99.9480","EPOCH":"2022-10-20T18:19:20.154144","SEMIMAJOR_AXIS":"6925.342","REV_AT_EPOCH":"15384","ECCENTRICITY":"0.00014470","OBJECT_ID":"2020-001AQ","MEAN_ANOMALY":"260.1672","TLE_LINE2":"2 44952  53.0541 114.9169 0001447  99.9480 260.1672 15.06402110153845","NORAD_CAT_ID":"44952","LAUNCH_DATE":"2020-01-07","TIME_SYSTEM":"UTC","OBJECT_NAME":"STARLINK-1117","DECAY_DATE":null,"MEAN_ELEMENT_THEORY":"SGP4","PERIOD":"95.592","EPHEMERIS_TYPE":"0","BSTAR":"0.00015559000000","COUNTRY_CODE":"US"},{"MEAN_MOTION_DOT":"-0.00000060","MEAN_MOTION_DDOT":"0.0000000000000","INCLINATION":"53.0565","MEAN_MOTION":"15.06391821","ELEMENT_SET_NO":"999","APOAPSIS":"548.002","PERIAPSIS":"546.475","CENTER_NAME":"EARTH","GP_ID":"215722789","SITE":"AFETR","FILE":"3626396","TLE_LINE1":"1 44953U 20001AR  22293.78091823 -.00000060  00000-0  14839-4 0  9990","OBJECT_TYPE":"PAYLOAD","SEMIMAJOR_AXIS":"6925.374","EPOCH":"2022-10-20T18:44:31.335072","ARG_OF_PERICENTER":"114.3266","RCS_SIZE":"LARGE","REF_FRAME":"TEME","RA_OF_ASC_NODE":"114.8353","CLASSIFICATION_TYPE":"U","MEAN_ANOMALY":"245.7839","TLE_LINE2":"2 44953  53.0565 114.8353 0001102 114.3266 245.7839 15.06391821155132","NORAD_CAT_ID":"44953","OBJECT_ID":"2020-001AR","REV_AT_EPOCH":"15513","ECCENTRICITY":"0.00011020","EPHEMERIS_TYPE":"0","BSTAR":"0.00001483900000","OBJECT_NAME":"STARLINK-1124","DECAY_DATE":null,"PERIOD":"95.593","MEAN_ELEMENT_THEORY":"SGP4","LAUNCH_DATE":"2020-01-07","TIME_SYSTEM":"UTC","COUNTRY_CODE":"US"},{"REF_FRAME":"TEME","RCS_SIZE":"LARGE","RA_OF_ASC_NODE":"94.4824","CLASSIFICATION_TYPE":"U","SEMIMAJOR_AXIS":"6925.342","EPOCH":"2022-10-20T20:39:59.580000","ARG_OF_PERICENTER":"98.8707","OBJECT_ID":"2020-001AS","ECCENTRICITY":"0.00012240","REV_AT_EPOCH":"15408","TLE_LINE2":"2 44954  53.0560  94.4824 0001224  98.8707 261.2420 15.06402246154081","NORAD_CAT_ID":"44954","MEAN_ANOMALY":"261.2420","TIME_SYSTEM":"UTC","LAUNCH_DATE":"2020-01-07","BSTAR":"0.00004787400000","EPHEMERIS_TYPE":"0","MEAN_ELEMENT_THEORY":"SGP4","PERIOD":"95.592","OBJECT_NAME":"STARLINK-1066","DECAY_DATE":null,"COUNTRY_CODE":"US","INCLINATION":"53.0560","MEAN_MOTION_DDOT":"0.0000000000000","MEAN_MOTION_DOT":"0.00000432","ELEMENT_SET_NO":"999","MEAN_MOTION":"15.06402246","APOAPSIS":"548.054","PERIAPSIS":"546.359","FILE":"3626396","SITE":"AFETR","TLE_LINE1":"1 44954U 20001AS  22293.86110625  .00000432  00000-0  47874-4 0  9999","OBJECT_TYPE":"PAYLOAD","GP_ID":"215721557","CENTER_NAME":"EARTH"}];
